CCSDS_OMM_VERS = 2.0
CREATION_DATE  = 
ORIGINATOR     = 

OBJECT_NAME    = SL-16 R/B
OBJECT_ID      = 1998-043G
CENTER_NAME    = EARTH
REF_FRAME      = TEME
TIME_SYSTEM    = UTC
MEAN_ELEMENT_THEORY = SGP/SGP4

EPOCH          = 2025-12-08T20:51:35.774784
MEAN_MOTION    = 14.26024042
ECCENTRICITY   = .00088372
INCLINATION    = 98.8118
RA_OF_ASC_NODE = 290.6657
ARG_OF_PERICENTER = 279.3232
MEAN_ANOMALY   = 80.6948

EPHEMERIS_TYPE = 0
CLASSIFICATION_TYPE = U
NORAD_CAT_ID   = 25400
ELEMENT_SET_NO = 999
REV_AT_EPOCH   = 42604
BSTAR          = .79690649E-4
MEAN_MOTION_DOT = .145E-5
MEAN_MOTION_DDOT = 0

CCSDS_OMM_VERS = 2.0
CREATION_DATE  = 
ORIGINATOR     = 

OBJECT_NAME    = SL-16 R/B
OBJECT_ID      = 1998-045B
CENTER_NAME    = EARTH
REF_FRAME      = TEME
TIME_SYSTEM    = UTC
MEAN_ELEMENT_THEORY = SGP/SGP4

EPOCH          = 2025-12-08T19:25:15.857184
MEAN_MOTION    = 14.16176127
ECCENTRICITY   = .00071282
INCLINATION    = 71.0122
RA_OF_ASC_NODE = 12.6930
ARG_OF_PERICENTER = 183.9466
MEAN_ANOMALY   = 176.1603

EPHEMERIS_TYPE = 0
CLASSIFICATION_TYPE = U
NORAD_CAT_ID   = 25407
ELEMENT_SET_NO = 999
REV_AT_EPOCH   = 41423
BSTAR          = -.21027016E-4
MEAN_MOTION_DOT = -.89E-6
MEAN_MOTION_DDOT = 0

CCSDS_OMM_VERS = 2.0
CREATION_DATE  = 
ORIGINATOR     = 

OBJECT_NAME    = ISS (ZARYA)
OBJECT_ID      = 1998-067A
CENTER_NAME    = EARTH
REF_FRAME      = TEME
TIME_SYSTEM    = UTC
MEAN_ELEMENT_THEORY = SGP/SGP4

EPOCH          = 2025-12-08T20:45:25.501536
MEAN_MOTION    = 15.49428834
ECCENTRICITY   = .00033811
INCLINATION    = 51.6308
RA_OF_ASC_NODE = 161.6653
ARG_OF_PERICENTER = 221.9847
MEAN_ANOMALY   = 138.0883

EPHEMERIS_TYPE = 0
CLASSIFICATION_TYPE = U
NORAD_CAT_ID   = 25544
ELEMENT_SET_NO = 999
REV_AT_EPOCH   = 54225
BSTAR          = .22803662E-3
MEAN_MOTION_DOT = .12323E-3
MEAN_MOTION_DDOT = 0

CCSDS_OMM_VERS = 2.0
CREATION_DATE  = 
ORIGINATOR     = 

OBJECT_NAME    = CZ-4B R/B
OBJECT_ID      = 1999-025C
CENTER_NAME    = EARTH
REF_FRAME      = TEME
TIME_SYSTEM    = UTC
MEAN_ELEMENT_THEORY = SGP/SGP4

EPOCH          = 2025-12-08T17:42:29.936736
MEAN_MOTION    = 14.18242225
ECCENTRICITY   = .00361716
INCLINATION    = 98.6773
RA_OF_ASC_NODE = 24.1072
ARG_OF_PERICENTER = 245.8055
MEAN_ANOMALY   = 226.2503

EPHEMERIS_TYPE = 0
CLASSIFICATION_TYPE = U
NORAD_CAT_ID   = 25732
ELEMENT_SET_NO = 999
REV_AT_EPOCH   = 37527
BSTAR          = .1002722E-3
MEAN_MOTION_DOT = .164E-5
MEAN_MOTION_DDOT = 0

CCSDS_OMM_VERS = 2.0
CREATION_DATE  = 
ORIGINATOR     = 

OBJECT_NAME    = OKEAN-O
OBJECT_ID      = 1999-039A
CENTER_NAME    = EARTH
REF_FRAME      = TEME
TIME_SYSTEM    = UTC
MEAN_ELEMENT_THEORY = SGP/SGP4

EPOCH          = 2025-12-08T17:36:12.826656
MEAN_MOTION    = 14.80151839
ECCENTRICITY   = .00007975
INCLINATION    = 97.9607
RA_OF_ASC_NODE = 38.4697
ARG_OF_PERICENTER = 88.8473
MEAN_ANOMALY   = 271.2830

EPHEMERIS_TYPE = 0
CLASSIFICATION_TYPE = U
NORAD_CAT_ID   = 25860
ELEMENT_SET_NO = 999
REV_AT_EPOCH   = 42093
BSTAR          = .21111809E-3
MEAN_MOTION_DOT = .155E-4
MEAN_MOTION_DDOT = 0

CCSDS_OMM_VERS = 2.0
CREATION_DATE  = 
ORIGINATOR     = 

OBJECT_NAME    = SL-16 R/B
OBJECT_ID      = 1999-039B
CENTER_NAME    = EARTH
REF_FRAME      = TEME
TIME_SYSTEM    = UTC
MEAN_ELEMENT_THEORY = SGP/SGP4

EPOCH          = 2025-12-08T17:34:40.488384
MEAN_MOTION    = 14.81578663
ECCENTRICITY   = .0014608
INCLINATION    = 98.0130
RA_OF_ASC_NODE = 36.8832
ARG_OF_PERICENTER = 187.7221
MEAN_ANOMALY   = 172.3768

EPHEMERIS_TYPE = 0
CLASSIFICATION_TYPE = U
NORAD_CAT_ID   = 25861
ELEMENT_SET_NO = 999
REV_AT_EPOCH   = 42339
BSTAR          = .17285902E-3
MEAN_MOTION_DOT = .1306E-4
MEAN_MOTION_DDOT = 0

CCSDS_OMM_VERS = 2.0
CREATION_DATE  = 
ORIGINATOR     = 

OBJECT_NAME    = DELTA 2 R/B
OBJECT_ID      = 1999-041E
CENTER_NAME    = EARTH
REF_FRAME      = TEME
TIME_SYSTEM    = UTC
MEAN_ELEMENT_THEORY = SGP/SGP4

EPOCH          = 2025-12-08T21:21:22.303872
MEAN_MOTION    = 14.11385260
ECCENTRICITY   = .05047551
INCLINATION    = 51.7619
RA_OF_ASC_NODE = 303.8142
ARG_OF_PERICENTER = 80.4200
MEAN_ANOMALY   = 285.3372

EPHEMERIS_TYPE = 0
CLASSIFICATION_TYPE = U
NORAD_CAT_ID   = 25876
ELEMENT_SET_NO = 999
REV_AT_EPOCH   = 35020
BSTAR          = .23584988E-3
MEAN_MOTION_DOT = .1217E-4
MEAN_MOTION_DDOT = 0

CCSDS_OMM_VERS = 2.0
CREATION_DATE  = 
ORIGINATOR     = 

OBJECT_NAME    = HELIOS 1B
OBJECT_ID      = 1999-064A
CENTER_NAME    = EARTH
REF_FRAME      = TEME
TIME_SYSTEM    = UTC
MEAN_ELEMENT_THEORY = SGP/SGP4

EPOCH          = 2025-12-08T23:14:49.381440
MEAN_MOTION    = 14.87256421
ECCENTRICITY   = .00019019
INCLINATION    = 98.1753
RA_OF_ASC_NODE = 237.5224
ARG_OF_PERICENTER = 47.6384
MEAN_ANOMALY   = 312.4992

EPHEMERIS_TYPE = 0
CLASSIFICATION_TYPE = U
NORAD_CAT_ID   = 25977
ELEMENT_SET_NO = 999
REV_AT_EPOCH   = 67177
BSTAR          = .2912174E-3
MEAN_MOTION_DOT = .2566E-4
MEAN_MOTION_DDOT = 0

CCSDS_OMM_VERS = 2.0
CREATION_DATE  = 
ORIGINATOR     = 

OBJECT_NAME    = TERRA
OBJECT_ID      = 1999-068A
CENTER_NAME    = EARTH
REF_FRAME      = TEME
TIME_SYSTEM    = UTC
MEAN_ELEMENT_THEORY = SGP/SGP4

EPOCH          = 2025-12-08T21:49:22.179936
MEAN_MOTION    = 14.60945359
ECCENTRICITY   = .00035285
INCLINATION    = 97.9753
RA_OF_ASC_NODE = 34.7344
ARG_OF_PERICENTER = 105.4870
MEAN_ANOMALY   = 11.8952

EPHEMERIS_TYPE = 0
CLASSIFICATION_TYPE = U
NORAD_CAT_ID   = 25994
ELEMENT_SET_NO = 999
REV_AT_EPOCH   = 38182
BSTAR          = .17004427E-3
MEAN_MOTION_DOT = .788E-5
MEAN_MOTION_DDOT = 0

CCSDS_OMM_VERS = 2.0
CREATION_DATE  = 
ORIGINATOR     = 

OBJECT_NAME    = SL-16 R/B
OBJECT_ID      = 2000-006B
CENTER_NAME    = EARTH
REF_FRAME      = TEME
TIME_SYSTEM    = UTC
MEAN_ELEMENT_THEORY = SGP/SGP4

EPOCH          = 2025-12-08T22:36:59.193792
MEAN_MOTION    = 14.15810460
ECCENTRICITY   = .0018316
INCLINATION    = 71.0032
RA_OF_ASC_NODE = 288.6415
ARG_OF_PERICENTER = 313.8916
MEAN_ANOMALY   = 46.0694

EPHEMERIS_TYPE = 0
CLASSIFICATION_TYPE = U
NORAD_CAT_ID   = 26070
ELEMENT_SET_NO = 999
REV_AT_EPOCH   = 33571
BSTAR          = .48844378E-4
MEAN_MOTION_DOT = .48E-6
MEAN_MOTION_DDOT = 0

CCSDS_OMM_VERS = 2.0
CREATION_DATE  = 
ORIGINATOR     = 

OBJECT_NAME    = TITAN 4B R/B
OBJECT_ID      = 2000-047B
CENTER_NAME    = EARTH
REF_FRAME      = TEME
TIME_SYSTEM    = UTC
MEAN_ELEMENT_THEORY = SGP/SGP4

EPOCH          = 2025-12-08T23:08:35.546784
MEAN_MOTION    = 15.08735534
ECCENTRICITY   = .00392265
INCLINATION    = 67.9903
RA_OF_ASC_NODE = 295.4577
ARG_OF_PERICENTER = 149.1684
MEAN_ANOMALY   = 211.1780

EPHEMERIS_TYPE = 0
CLASSIFICATION_TYPE = U
NORAD_CAT_ID   = 26474
ELEMENT_SET_NO = 999
REV_AT_EPOCH   = 37922
BSTAR          = .29545026E-3
MEAN_MOTION_DOT = .4598E-4
MEAN_MOTION_DDOT = 0

CCSDS_OMM_VERS = 2.0
CREATION_DATE  = 
ORIGINATOR     = 

OBJECT_NAME    = ENVISAT
OBJECT_ID      = 2002-009A
CENTER_NAME    = EARTH
REF_FRAME      = TEME
TIME_SYSTEM    = UTC
MEAN_ELEMENT_THEORY = SGP/SGP4

EPOCH          = 2025-12-08T20:56:23.500608
MEAN_MOTION    = 14.38997309
ECCENTRICITY   = .0001143
INCLINATION    = 98.3594
RA_OF_ASC_NODE = 293.7112
ARG_OF_PERICENTER = 81.8098
MEAN_ANOMALY   = 338.8518

EPHEMERIS_TYPE = 0
CLASSIFICATION_TYPE = U
NORAD_CAT_ID   = 27386
ELEMENT_SET_NO = 999
REV_AT_EPOCH   = 24611
BSTAR          = .11499544E-3
MEAN_MOTION_DOT = .312E-5
MEAN_MOTION_DDOT = 0

